[{"OBJECT_NAME":"STARLINK-3652","OBJECT_ID":"2022-025AM","EPOCH":"2026-03-09T07:20:56.537952","MEAN_MOTION":15.08838626,"ECCENTRICITY":0.00013465,"INCLINATION":53.2189,"RA_OF_ASC_NODE":40.8422,"ARG_OF_PERICENTER":87.0792,"MEAN_ANOMALY":273.0354,"EPHEMERIS_TYPE":0,"CLASSIFICATION_TYPE":"U","NORAD_CAT_ID":51991,"ELEMENT_SET_NO":999,"REV_AT_EPOCH":22100,"BSTAR":4.4495202e-5,"MEAN_MOTION_DOT":4.2e-6,"MEAN_MOTION_DDOT":0},{"OBJECT_NAME":"CZ-4B R\/B","OBJECT_ID":"2006-046C","EPOCH":"2026-03-09T16:12:15.627168","MEAN_MOTION":15.16904341,"ECCENTRICITY":0.003169,"INCLINATION":97.5596,"RA_OF_ASC_NODE":113.5843,"ARG_OF_PERICENTER":267.3889,"MEAN_ANOMALY":92.3716,"EPHEMERIS_TYPE":0,"CLASSIFICATION_TYPE":"U","NORAD_CAT_ID":29507,"ELEMENT_SET_NO":999,"REV_AT_EPOCH":6004,"BSTAR":0.0003074379,"MEAN_MOTION_DOT":6.066e-5,"MEAN_MOTION_DDOT":0}]
